IRIDIUM 26              
1 24903U 97043A   25224.72213733  .00000344  00000+0  10904-3 0  9991
2 24903  86.3913  86.8652 0001941  87.8743 272.2677 14.37180255464864
IRIDIUM 22              
1 24907U 97043E   25224.69875917  .00000309  00000+0  99806-4 0  9999
2 24907  86.3922  90.4656 0002089  89.8142 270.3294 14.35988827464887
DUMMY MASS 1            
1 24925U 97048A   25224.74214276  .00000377  00000+0  38915-4 0  9994
2 24925  86.3336 109.1844 0004910 323.3755  36.7133 14.87025524513530
DUMMY MASS 2            
1 24926U 97048B   25224.71371602  .00000379  00000+0  39394-4 0  9993
2 24926  86.3341 110.8161 0006101 335.4774  24.6159 14.86777502513305
IRIDIUM 29              
1 24944U 97051A   25224.70150925  .00000383  00000+0  12400-3 0  9992
2 24944  86.3967 120.2026 0002368  86.0985 274.0483 14.36506704461388
IRIDIUM 33              
1 24946U 97051C   25224.74545021  .00000293  00000+0  96335-4 0  9993
2 24946  86.3881 119.4490 0005755 249.5665 110.4914 14.34922500460851
IRIDIUM 28              
1 24948U 97051E   25224.70893447  .00000312  00000+0  97867-4 0  9992
2 24948  86.3967 117.6824 0001658  87.5054 272.6333 14.37418745461962
IRIDIUM 36              
1 24967U 97056C   25224.73302629  .00000335  00000+0  10487-3 0  9995
2 24967  86.4022 149.2664 0002138  91.9916 268.1526 14.37646106460348
